ONEWEB-0647             
1 56079U 23043AK  24032.14764335 -.00000036  00000+0 -13056-3 0  9991
2 56079  87.8957  71.8178 0002133 104.5479 255.5888 13.15546521 42420
ONEWEB-0651             
1 56080U 23043AL  24031.53442726 -.00000019  00000+0 -85267-4 0  9997
2 56080  87.8960  71.9129 0001828 110.9323 249.2003 13.15547163 42345
ONEWEB-0718             
1 56081U 23043AM  24031.52968158  .00000768  00000+0  20047-2 0  9991
2 56081  87.8962  71.9015 0001639  76.7832 283.3481 13.15544343 43264
GSLV R/B                
1 56082U 23043AN  24032.04842952  .00055703  00000+0  70401-3 0  9992
2 56082  87.4068  31.0365 0012418 234.8072 125.2031 15.59243038 48192
ONEWEB-0561             
1 56710U 23068A   24031.56053579  .00000076  00000+0  12681-3 0  9991
2 56710  88.2886  84.7902 0002802 102.1796 257.9660 13.34325726 34906
ONEWEB-0668             
1 56711U 23068B   24032.25001157  .00000015  00000+0  00000+0 0  9995
2 56711  87.7587  41.3764 0015045  64.8804 207.3794 13.54151615 38368
ONEWEB-0676             
1 56712U 23068C   24032.25001157  .00000014  00000+0  00000+0 0  9995
2 56712  87.7870  41.3996 0016922  68.3961 350.1245 13.42392895 38305
ONEWEB-0677             
1 56713U 23068D   24032.11671117  .00000009  00000+0 -76952-5 0  9990
2 56713  88.3219  82.9415 0001986 117.5592 242.5751 13.34774533 35866
